[{"OBJECT_NAME":"STARLINK-36909","OBJECT_ID":"2026-037Q","EPOCH":"2026-03-09T22:00:01.999584","MEAN_MOTION":15.82026411,"ECCENTRICITY":0.00017219,"INCLINATION":42.9988,"RA_OF_ASC_NODE":197.0365,"ARG_OF_PERICENTER":286.9884,"MEAN_ANOMALY":258.8022,"EPHEMERIS_TYPE":0,"CLASSIFICATION_TYPE":"U","NORAD_CAT_ID":67946,"ELEMENT_SET_NO":999,"REV_AT_EPOCH":323,"BSTAR":-5.7277379e-5,"MEAN_MOTION_DOT":-0.00012582,"MEAN_MOTION_DDOT":0},{"OBJECT_NAME":"CZ-2D DEB","OBJECT_ID":"2005-024L","EPOCH":"2026-03-06T07:38:56.656320","MEAN_MOTION":15.78698644,"ECCENTRICITY":0.00065736,"INCLINATION":97.1694,"RA_OF_ASC_NODE":99.2993,"ARG_OF_PERICENTER":133.8674,"MEAN_ANOMALY":226.3138,"EPHEMERIS_TYPE":0,"CLASSIFICATION_TYPE":"U","NORAD_CAT_ID":35272,"ELEMENT_SET_NO":999,"REV_AT_EPOCH":12318,"BSTAR":0.00064046997,"MEAN_MOTION_DOT":0.00112943,"MEAN_MOTION_DDOT":0}]
